{
    "links": {
        "self": "http://www.neowsapp.com/rest/v1/neo/3756748?api_key=iIulBulltgU6a56xZRHN4H3l9WmuAYTsLGpBGhQ2"
    },
    "id": "3756748",
    "neo_reference_id": "3756748",
    "name": "(2016 NB56)",
    "designation": "2016 NB56",
    "nasa_jpl_url": "http://ssd.jpl.nasa.gov/sbdb.cgi?sstr=3756748",
    "absolute_magnitude_h": 24.3,
    "estimated_diameter": {
        "kilometers": {
            "estimated_diameter_min": 0.0366906138,
            "estimated_diameter_max": 0.0820427065
        },
        "meters": {
            "estimated_diameter_min": 36.6906137531,
            "estimated_diameter_max": 82.0427064882
        },
        "miles": {
            "estimated_diameter_min": 0.0227984834,
            "estimated_diameter_max": 0.0509789586
        },
        "feet": {
            "estimated_diameter_min": 120.3760332259,
            "estimated_diameter_max": 269.1689931548
        }
    },
    "is_potentially_hazardous_asteroid": false,
    "close_approach_data": [
        {
            "close_approach_date": "1937-07-13",
            "close_approach_date_full": "1937-Jul-13 02:14",
            "epoch_date_close_approach": -1024695960000,
            "relative_velocity": {
                "kilometers_per_second": "20.6561639672",
                "kilometers_per_hour": "74362.1902818185",
                "miles_per_hour": "46205.7731781666"
            },
            "miss_distance": {
                "astronomical": "0.0979819734",
                "lunar": "38.1149876526",
                "kilometers": "14657894.519036658",
                "miles": "9107993.3108675604"
            },
            "orbiting_body": "Earth"
        },
        {
            "close_approach_date": "2016-07-08",
            "close_approach_date_full": "2016-Jul-08 04:14",
            "epoch_date_close_approach": 1467951240000,
            "relative_velocity": {
                "kilometers_per_second": "17.5755004866",
                "kilometers_per_hour": "63271.8017518111",
                "miles_per_hour": "39314.6370385073"
            },
            "miss_distance": {
                "astronomical": "0.0188355166",
                "lunar": "7.3270159574",
                "kilometers": "2817753.163709642",
                "miles": "1750870.6269793796"
            },
            "orbiting_body": "Earth"
        },
        {
            "close_approach_date": "2121-12-04",
            "close_approach_date_full": "2121-Dec-04 18:49",
            "epoch_date_close_approach": 4794317340000,
            "relative_velocity": {
                "kilometers_per_second": "29.8194865528",
                "kilometers_per_hour": "107350.1515902024",
                "miles_per_hour": "66703.2094700344"
            },
            "miss_distance": {
                "astronomical": "0.3959110737",
                "lunar": "154.0094076693",
                "kilometers": "59227453.334933019",
                "miles": "36802232.9601089022"
            },
            "orbiting_body": "Earth"
        },
        {
            "close_approach_date": "2173-12-16",
            "close_approach_date_full": "2173-Dec-16 00:08",
            "epoch_date_close_approach": 6436282080000,
            "relative_velocity": {
                "kilometers_per_second": "22.7143307351",
                "kilometers_per_hour": "81771.5906462293",
                "miles_per_hour": "50809.686421264"
            },
            "miss_distance": {
                "astronomical": "0.167540285",
                "lunar": "65.173170865",
                "kilometers": "25063669.77519295",
                "miles": "15573842.22964471"
            },
            "orbiting_body": "Earth"
        }
    ],
    "orbital_data": {
        "orbit_id": "2",
        "orbit_determination_date": "2017-04-06 08:24:52",
        "first_observation_date": "2016-07-15",
        "last_observation_date": "2016-07-31",
        "data_arc_in_days": 16,
        "observations_used": 18,
        "orbit_uncertainty": "9",
        "minimum_orbit_intersection": ".0156207",
        "jupiter_tisserand_invariant": "4.673",
        "epoch_osculation": "2457586.5",
        "eccentricity": ".5706930372291886",
        "semi_major_axis": "1.355067438267095",
        "inclination": "6.500488386005059",
        "ascending_node_longitude": "294.3309314033309",
        "orbital_period": "576.1556048885553",
        "perihelion_distance": ".5817398862720706",
        "perihelion_argument": "251.8816618813767",
        "aphelion_distance": "2.12839499026212",
        "perihelion_time": "2457521.867614771663",
        "mean_anomaly": "40.38433104664831",
        "mean_motion": ".6248312034899567",
        "equinox": "J2000",
        "orbit_class": {
            "orbit_class_type": "APO",
            "orbit_class_description": "Near-Earth asteroid orbits which cross the Earth’s orbit similar to that of 1862 Apollo",
            "orbit_class_range": "a (semi-major axis) > 1.0 AU; q (perihelion) < 1.017 AU"
        }
    },
    "is_sentry_object": false
}